[{"OBJECT_NAME":"KUIPER-00187","OBJECT_ID":"2025-301J","EPOCH":"2026-03-09T23:31:50.478240","MEAN_MOTION":14.79912825,"ECCENTRICITY":6.188e-5,"INCLINATION":51.9028,"RA_OF_ASC_NODE":79.3379,"ARG_OF_PERICENTER":81.4352,"MEAN_ANOMALY":278.6681,"EPHEMERIS_TYPE":0,"CLASSIFICATION_TYPE":"U","NORAD_CAT_ID":67141,"ELEMENT_SET_NO":999,"REV_AT_EPOCH":1356,"BSTAR":0.00060978293,"MEAN_MOTION_DOT":4.428e-5,"MEAN_MOTION_DDOT":0},{"OBJECT_NAME":"YAOGAN-11 DEB","OBJECT_ID":"2010-047D","EPOCH":"2026-03-09T05:18:16.155648","MEAN_MOTION":14.40865876,"ECCENTRICITY":0.0181265,"INCLINATION":97.8765,"RA_OF_ASC_NODE":61.715,"ARG_OF_PERICENTER":176.6723,"MEAN_ANOMALY":248.3503,"EPHEMERIS_TYPE":0,"CLASSIFICATION_TYPE":"U","NORAD_CAT_ID":38174,"ELEMENT_SET_NO":999,"REV_AT_EPOCH":80069,"BSTAR":0.00052955866,"MEAN_MOTION_DOT":2.019e-5,"MEAN_MOTION_DDOT":0}]
